IRIDIUM 159             
1 43578U 18061K   23272.58628131  .00000145  00000+0  44837-4 0  9992
2 43578  86.3920 111.1607 0002173  87.4490 272.6954 14.34216087271257
IRIDIUM 180             
1 43922U 19002A   23272.65554066  .00000679  00000+0  23554-3 0  9998
2 43922  86.3973  47.9630 0002041  99.6502 260.4924 14.34218129246919
IRIDIUM 176             
1 43923U 19002B   23272.44213042  .00001862  00000+0  29124-3 0  9996
2 43923  86.6103  48.0857 0002257  91.1296 269.0180 14.72276743253338
IRIDIUM 168             
1 43924U 19002C   23272.43989673  .00000518  00000+0  17785-3 0  9993
2 43924  86.3978  48.1028 0002096  94.5307 265.6128 14.34216726246821
IRIDIUM 173             
1 43925U 19002D   23272.42720966  .00001196  00000+0  41997-3 0  9996
2 43925  86.3967  48.0366 0002164  85.7121 274.4322 14.34215479246802
IRIDIUM 169             
1 43926U 19002E   23272.52604275  .00000239  00000+0  71575-4 0  9995
2 43926  86.4176  79.6256 0004217  40.7476 319.4037 14.38609488247657
IRIDIUM 172             
1 43927U 19002F   23272.76971065  .00000616  00000+0  21294-3 0  9997
2 43927  86.3973  47.8992 0002145  95.6282 264.5159 14.34217017246864
IRIDIUM 175             
1 43928U 19002G   23272.77581734  .00002051  00000+0  32123-3 0  9997
2 43928  86.1542  35.8682 0002243  92.8604 267.2870 14.72264263253375
